{"type": "FeatureCollection", "features": [ {"type": "Feature", "properties": {"norad_id": 41556, "name": "ZIYUAN 3-02 (ZY 3-02)", "group": "resource", "lat": 75.39735349465893, "lon": 37.102802269914996, "alt_km": 501.4529844324861, "timestamp": "2025-12-18T23:35:48.704511+00:00", "meta": {"OBJECT_NAME": "ZIYUAN 3-02 (ZY 3-02)", "OBJECT_ID": "2016-033A", "EPOCH": "2025-12-18T15:21:48.170304", "MEAN_MOTION": 15.21137747, "ECCENTRICITY": 0.00109261, "INCLINATION": 97.4044, "RA_OF_ASC_NODE": 66.71, "ARG_OF_PERICENTER": 224.1537, "MEAN_ANOMALY": 135.8828, "EPHEMERIS_TYPE": 0, "CLASSIFICATION_TYPE": "U", "NORAD_CAT_ID": 41556, "ELEMENT_SET_NO": 999, "REV_AT_EPOCH": 53053, "BSTAR": 0.00026845304, "MEAN_MOTION_DOT": 5.917e-05, "MEAN_MOTION_DDOT": 0}, "tle": {"line1": "1 41556U 16033A   25352.64014086  .00005917  00000+0  26845-3 0  9999", "line2": "2 41556  97.4044  66.7100 0010926 224.1537 135.8828 15.21137747530532"}}, "geometry": {"type": "Point", "coordinates": [37.102802269914996, 75.39735349465893]}}, {"type": "Feature", "properties": {"norad_id": 41599, "name": "CARTOSAT-2C", "group": "resource", "lat": -26.23239257411738, "lon": 53.88028475176727, "alt_km": 511.4702882087986, "timestamp": "2025-12-18T23:35:48.704521+00:00", "meta": {"OBJECT_NAME": "CARTOSAT-2C", "OBJECT_ID": "2016-040A", "EPOCH": "2025-12-18T14:13:41.115936", "MEAN_MOTION": 15.19164582, "ECCENTRICITY": 0.0011185, "INCLINATION": 97.4763, "RA_OF_ASC_NODE": 49.7837, "ARG_OF_PERICENTER": 44.8731, "MEAN_ANOMALY": 315.3406, "EPHEMERIS_TYPE": 0, "CLASSIFICATION_TYPE": "U", "NORAD_CAT_ID": 41599, "ELEMENT_SET_NO": 999, "REV_AT_EPOCH": 52629, "BSTAR": 0.0001240207, "MEAN_MOTION_DOT": 2.542e-05, "MEAN_MOTION_DDOT": 0}, "tle": {"line1": "1 41599U 16040A   25352.59283699  .00002542  00000+0  12402-3 0  9991", "line2": "2 41599  97.4763  49.7837 0011185  44.8731 315.3406 15.19164582526295"}}, "geometry": {"type": "Point", "coordinates": [53.88028475176727, -26.23239257411738]}}, {"type": "Feature", "properties": {"norad_id": 41601, "name": "SKYSAT-C1", "group": "resource", "lat": -29.867668960227228, "lon": 33.680862170083216, "alt_km": 472.7748802217029, "timestamp": "2025-12-18T23:35:48.704531+00:00", "meta": {"OBJECT_NAME": "SKYSAT-C1", "OBJECT_ID": "2016-040C", "EPOCH": "2025-12-18T14:19:35.767200", "MEAN_MOTION": 15.3269388, "ECCENTRICITY": 0.00016646, "INCLINATION": 96.9818, "RA_OF_ASC_NODE": 29.2807, "ARG_OF_PERICENTER": 356.1128, "MEAN_ANOMALY": 4.0102, "EPHEMERIS_TYPE": 0, "CLASSIFICATION_TYPE": "U", "NORAD_CAT_ID": 41601, "ELEMENT_SET_NO": 999, "REV_AT_EPOCH": 53017, "BSTAR": 0.00024321745, "MEAN_MOTION_DOT": 7.607e-05, "MEAN_MOTION_DDOT": 0}, "tle": {"line1": "1 41601U 16040C   25352.59694175  .00007607  00000+0  24322-3 0  9991", "line2": "2 41601  96.9818  29.2807 0001664 356.1128   4.0102 15.32693880530174"}}, "geometry": {"type": "Point", "coordinates": [33.680862170083216, -29.867668960227228]}}, {"type": "Feature", "properties": {"norad_id": 41603, "name": "LAPAN-A3", "group": "resource", "lat": 82.85159533019862, "lon": -98.62200298973067, "alt_km": 468.3910252644491, "timestamp": "2025-12-18T23:35:48.704542+00:00", "meta": {"OBJECT_NAME": "LAPAN-A3", "OBJECT_ID": "2016-040E", "EPOCH": "2025-12-18T15:21:57.172320", "MEAN_MOTION": 15.31598917, "ECCENTRICITY": 0.00090747, "INCLINATION": 97.1422, "RA_OF_ASC_NODE": 349.982, "ARG_OF_PERICENTER": 310.1206, "MEAN_ANOMALY": 49.924, "EPHEMERIS_TYPE": 0, "CLASSIFICATION_TYPE": "U", "NORAD_CAT_ID": 41603, "ELEMENT_SET_NO": 999, "REV_AT_EPOCH": 52716, "BSTAR": 0.00011138196, "MEAN_MOTION_DOT": 3.328e-05, "MEAN_MOTION_DDOT": 0}, "tle": {"line1": "1 41603U 16040E   25352.64024505  .00003328  00000+0  11138-3 0  9990", "line2": "2 41603  97.1422 349.9820 0009074 310.1206  49.9240 15.31598917527167"}}, "geometry": {"type": "Point", "coordinates": [-98.62200298973067, 82.85159533019862]}}, {"type": "Feature", "properties": {"norad_id": 41604, "name": "BIROS", "group": "resource", "lat": 14.753585223744823, "lon": -153.4505701608432, "alt_km": 295.3790208747196, "timestamp": "2025-12-18T23:35:48.704553+00:00", "meta": {"OBJECT_NAME": "BIROS", "OBJECT_ID": "2016-040F", "EPOCH": "2025-12-18T15:21:48.240288", "MEAN_MOTION": 15.91957755, "ECCENTRICITY": 0.00036858, "INCLINATION": 97.0683, "RA_OF_ASC_NODE": 24.3187, "ARG_OF_PERICENTER": 135.4463, "MEAN_ANOMALY": 224.7109, "EPHEMERIS_TYPE": 0, "CLASSIFICATION_TYPE": "U", "NORAD_CAT_ID": 41604, "ELEMENT_SET_NO": 999, "REV_AT_EPOCH": 52966, "BSTAR": 0.00057739272, "MEAN_MOTION_DOT": 0.00189106, "MEAN_MOTION_DDOT": 1.5181401e-05}, "tle": {"line1": "1 41604U 16040F   25352.64014167  .00189106  15181-4  57739-3 0  9991", "line2": "2 41604  97.0683  24.3187 0003685 135.4463 224.7109 15.91957755529660"}}, "geometry": {"type": "Point", "coordinates": [-153.4505701608432, 14.753585223744823]}}, {"type": "Feature", "properties": {"norad_id": 41727, "name": "GAOFEN-3", "group": "resource", "lat": 21.67104621123699, "lon": -4.892848693046204, "alt_km": 750.2050591984907, "timestamp": "2025-12-18T23:35:48.704563+00:00", "meta": {"OBJECT_NAME": "GAOFEN-3", "OBJECT_ID": "2016-049A", "EPOCH": "2025-12-18T15:10:12.715968", "MEAN_MOTION": 14.42215499, "ECCENTRICITY": 0.00012841, "INCLINATION": 98.4034, "RA_OF_ASC_NODE": 358.1289, "ARG_OF_PERICENTER": 57.674, "MEAN_ANOMALY": 302.4573, "EPHEMERIS_TYPE": 0, "CLASSIFICATION_TYPE": "U", "NORAD_CAT_ID": 41727, "ELEMENT_SET_NO": 999, "REV_AT_EPOCH": 49262, "BSTAR": 6.24291e-05, "MEAN_MOTION_DOT": 1.62e-06, "MEAN_MOTION_DDOT": 0}, "tle": {"line1": "1 41727U 16049A   25352.63209162  .00000162  00000+0  62429-4 0  9992", "line2": "2 41727  98.4034 358.1289 0001284  57.6740 302.4573 14.42215499492629"}}, "geometry": {"type": "Point", "coordinates": [-4.892848693046204, 21.67104621123699]}}, {"type": "Feature", "properties": {"norad_id": 41771, "name": "SKYSAT-C4", "group": "resource", "lat": 56.571399058956445, "lon": -151.50365445410287, "alt_km": 432.2202861834121, "timestamp": "2025-12-18T23:35:48.704573+00:00", "meta": {"OBJECT_NAME": "SKYSAT-C4", "OBJECT_ID": "2016-058B", "EPOCH": "2025-12-18T15:16:53.676768", "MEAN_MOTION": 15.42414092, "ECCENTRICITY": 0.00020415, "INCLINATION": 96.9365, "RA_OF_ASC_NODE": 17.5383, "ARG_OF_PERICENTER": 129.8527, "MEAN_ANOMALY": 230.2902, "EPHEMERIS_TYPE": 0, "CLASSIFICATION_TYPE": "U", "NORAD_CAT_ID": 41771, "ELEMENT_SET_NO": 999, "REV_AT_EPOCH": 51758, "BSTAR": 0.00028785396, "MEAN_MOTION_DOT": 0.00012366, "MEAN_MOTION_DDOT": 0}, "tle": {"line1": "1 41771U 16058B   25352.63673237  .00012366  00000+0  28785-3 0  9994", "line2": "2 41771  96.9365  17.5383 0002041 129.8527 230.2902 15.42414092517584"}}, "geometry": {"type": "Point", "coordinates": [-151.50365445410287, 56.571399058956445]}}, {"type": "Feature", "properties": {"norad_id": 41772, "name": "SKYSAT-C5", "group": "resource", "lat": -32.88875570118875, "lon": -148.13207624933796, "alt_km": 468.57706338498247, "timestamp": "2025-12-18T23:35:48.704584+00:00", "meta": {"OBJECT_NAME": "SKYSAT-C5", "OBJECT_ID": "2016-058C", "EPOCH": "2025-12-18T02:19:04.577664", "MEAN_MOTION": 15.33970386, "ECCENTRICITY": 0.00037557, "INCLINATION": 97.0755, "RA_OF_ASC_NODE": 35.6253, "ARG_OF_PERICENTER": 267.8506, "MEAN_ANOMALY": 92.2307, "EPHEMERIS_TYPE": 0, "CLASSIFICATION_TYPE": "U", "NORAD_CAT_ID": 41772, "ELEMENT_SET_NO": 999, "REV_AT_EPOCH": 51598, "BSTAR": 0.00023286451, "MEAN_MOTION_DOT": 7.58e-05, "MEAN_MOTION_DDOT": 0}, "tle": {"line1": "1 41772U 16058C   25352.09658076  .00007580  00000+0  23286-3 0  9992", "line2": "2 41772  97.0755  35.6253 0003755 267.8506  92.2307 15.33970386515980"}}, "geometry": {"type": "Point", "coordinates": [-148.13207624933796, -32.88875570118875]}}, {"type": "Feature", "properties": {"norad_id": 41773, "name": "SKYSAT-C2", "group": "resource", "lat": -63.86470803611618, "lon": 31.82388092320708, "alt_km": 460.6842921599564, "timestamp": "2025-12-18T23:35:48.704594+00:00", "meta": {"OBJECT_NAME": "SKYSAT-C2", "OBJECT_ID": "2016-058D", "EPOCH": "2025-12-18T14:30:19.757376", "MEAN_MOTION": 15.37400266, "ECCENTRICITY": 0.00035987, "INCLINATION": 97.0353, "RA_OF_ASC_NODE": 16.8831, "ARG_OF_PERICENTER": 18.6514, "MEAN_ANOMALY": 341.4862, "EPHEMERIS_TYPE": 0, "CLASSIFICATION_TYPE": "U", "NORAD_CAT_ID": 41773, "ELEMENT_SET_NO": 999, "REV_AT_EPOCH": 51726, "BSTAR": 0.00026153985, "MEAN_MOTION_DOT": 9.515e-05, "MEAN_MOTION_DDOT": 0}, "tle": {"line1": "1 41773U 16058D   25352.60439534  .00009515  00000+0  26154-3 0  9993", "line2": "2 41773  97.0353  16.8831 0003598  18.6514 341.4862 15.37400266517261"}}, "geometry": {"type": "Point", "coordinates": [31.82388092320708, -63.86470803611618]}}, {"type": "Feature", "properties": {"norad_id": 41774, "name": "SKYSAT-C3", "group": "resource", "lat": -73.79185439610761, "lon": 51.171667276307694, "alt_km": 441.12232500613845, "timestamp": "2025-12-18T23:35:48.704604+00:00", "meta": {"OBJECT_NAME": "SKYSAT-C3", "OBJECT_ID": "2016-058E", "EPOCH": "2025-12-18T14:35:37.329216", "MEAN_MOTION": 15.44601646, "ECCENTRICITY": 0.00018498, "INCLINATION": 96.9291, "RA_OF_ASC_NODE": 26.0815, "ARG_OF_PERICENTER": 107.3542, "MEAN_ANOMALY": 252.791, "EPHEMERIS_TYPE": 0, "CLASSIFICATION_TYPE": "U", "NORAD_CAT_ID": 41774, "ELEMENT_SET_NO": 999, "REV_AT_EPOCH": 51816, "BSTAR": 0.00033767466, "MEAN_MOTION_DOT": 0.00015636, "MEAN_MOTION_DDOT": 0}, "tle": {"line1": "1 41774U 16058E   25352.60807094  .00015636  00000+0  33767-3 0  9993", "line2": "2 41774  96.9291  26.0815 0001849 107.3542 252.7910 15.44601646518161"}}, "geometry": {"type": "Point", "coordinates": [51.171667276307694, -73.79185439610761]}}]}